NORAD_CAT_ID,OBJECT_NAME,OBJECT_TYPE,EPOCH,MEAN_MOTION,ECCENTRICITY,INCLINATION,RA_OF_ASC_NODE,ARG_OF_PERICENTER,MEAN_ANOMALY,BSTAR,MEAN_MOTION_DOT,MEAN_MOTION_DDOT,TLE_LINE0,TLE_LINE1,TLE_LINE2,SEMIMAJOR_AXIS,PERIOD,APOGEE,PERIGEE,DECAYED
53792.0,STARLINK-4739,PAYLOAD,2022-11-30 22:00:00,15.08850199,0.000203,53.2161,237.4559,51.5662,135.8126,-0.0018231,-0.00029194,0.0,0 STARLINK-4739,1 53792U 22111V   22334.91667824 -.00029194  00000-0 -18231-2 0  9994,2 53792  53.2161 237.4559 0002030  51.5662 135.8126 15.08850199  1307,6917.849,95.437,541.119,538.31,0.0
53792.0,STARLINK-4739,PAYLOAD,2022-12-01 06:00:00,15.08834691,0.0002156,53.2155,235.9603,44.3061,154.668,0.0014398,0.00022698,0.0,0 STARLINK-4739,1 53792U 22111V   22335.25001157  .00022698  00000-0  14398-2 0  9993,2 53792  53.2155 235.9603 0002156  44.3061 154.6680 15.08834691 12568,6917.897,95.438,541.253,538.27,0.0
53792.0,STARLINK-4739,PAYLOAD,2022-12-01 14:00:01,15.08835283,0.0001922,53.2152,234.4595,49.3787,161.1998,0.0019756,0.0003129,0.0,0 STARLINK-4739,1 53792U 22111V   22335.58334491  .00031290  00000-0  19756-2 0  9990,2 53792  53.2152 234.4595 0001922  49.3787 161.1998 15.08835283  1302,6917.895,95.438,541.089,538.43,0.0
53792.0,STARLINK-4739,PAYLOAD,2022-12-01 22:00:00,15.08846208,0.0001995,53.2155,232.9643,46.788,175.3711,-0.00071551,-0.0001166,0.0,0 STARLINK-4739,1 53792U 22111V   22335.91667824 -.00011660  00000-0 -71551-3 0  9999,2 53792  53.2155 232.9643 0001995  46.7880 175.3711 15.08846208 12667,6917.861,95.437,541.107,538.346,0.0
53792.0,STARLINK-4739,PAYLOAD,2022-12-02 14:00:01,15.08827332,0.0001827,53.2154,229.9702,48.007,197.3667,0.0012368,0.00019444,0.0,0 STARLINK-4739,1 53792U 22111V   22336.58334491  .00019444  00000-0  12368-2 0  9990,2 53792  53.2154 229.9702 0001827  48.0070 197.3667 15.08827332  1308,6917.919,95.438,541.048,538.52,0.0
53792.0,STARLINK-4739,PAYLOAD,2022-12-02 22:00:00,15.08857191,0.00019,53.2155,228.4752,45.4147,211.5436,-0.0031354,-0.00049867,0.0,0 STARLINK-4739,1 53792U 22111V   22336.91667824 -.00049867  00000-0 -31354-2 0  9996,2 53792  53.2155 228.4752 0001900  45.4147 211.5436 15.08857191  1305,6917.828,95.436,541.007,538.378,0.0
53792.0,STARLINK-4739,PAYLOAD,2022-12-03 00:00:00,15.08849371,0.0001964,53.2155,228.1014,44.012,305.8479,-0.0029095,-0.00046308,0.0,0 STARLINK-4739,1 53792U 22111V   22337.00001157 -.00046308  00000-0 -29095-2 0  9994,2 53792  53.2155 228.1014 0001964  44.0120 305.8479 15.08849371 12834,6917.852,95.437,541.075,538.3580000000002,0.0
53792.0,STARLINK-4739,PAYLOAD,2022-12-03 14:00:01,15.08803067,0.0001751999999999,53.2152,225.4811,47.749,232.388,0.0032906,0.00052419,0.0,0 STARLINK-4739,1 53792U 22111V   22337.58334491  .00052419  00000-0  32906-2 0  9990,2 53792  53.2152 225.4811 0001752  47.7490 232.3880 15.08803067 12912,6917.993,95.44,541.07,538.646,0.0
53792.0,STARLINK-4739,PAYLOAD,2022-12-03 22:00:00,15.08842391,0.0001901,53.2152,223.9862,45.9002,245.8102,-0.00083273,-0.00013518,0.0,0 STARLINK-4739,1 53792U 22111V   22337.91667824 -.00013518  00000-0 -83273-3 0  9999,2 53792  53.2152 223.9862 0001901  45.9002 245.8102 15.08842391  1306,6917.873000000001,95.437,541.053,538.423,0.0
53792.0,STARLINK-4739,PAYLOAD,2022-12-04 06:00:00,15.08850055,0.0001939,53.2147,222.49,43.5939,259.7051,-0.00039784,-6.616e-05,0.0,0 STARLINK-4739,1 53792U 22111V   22338.25001157 -.00006616  00000-0 -39784-3 0  9997,2 53792  53.2147 222.4900 0001939  43.5939 259.7051 15.08850055 13015,6917.85,95.437,541.056,538.373,0.0
53792.0,STARLINK-4739,PAYLOAD,2022-12-04 14:00:01,15.08838388,0.0001761999999999,53.2147,220.9921,49.7533,265.1548,0.00078589,0.00012241,0.0,0 STARLINK-4739,1 53792U 22111V   22338.58334491  .00012241  00000-0  78589-3 0  9998,2 53792  53.2147 220.9921 0001762  49.7533 265.1548 15.08838388  1309,6917.885,95.438,540.969,538.531,0.0
53792.0,STARLINK-4739,PAYLOAD,2022-12-04 22:00:00,15.0883757,0.0001886,53.2146,219.4972,45.499,281.0128,-0.00057821,-9.478e-05,0.0,0 STARLINK-4739,1 53792U 22111V   22338.91667824 -.00009478  00000-0 -57821-3 0  9990,2 53792  53.2146 219.4972 0001886  45.4990 281.0128 15.08837570  1307,6917.888000000001,95.438,541.058,538.448,0.0
53792.0,STARLINK-4739,PAYLOAD,2022-12-05 14:00:01,15.08838491,0.0001829,53.2142,216.5029,50.7176,299.0511,0.0012776,0.00020103,0.0,0 STARLINK-4739,1 53792U 22111V   22339.58335648  .00020103  00000-0  12776-2 0  9995,2 53792  53.2142 216.5029 0001829  50.7176 299.0511 15.08838491  1304,6917.885,95.438,541.015,538.485,0.0
53792.0,STARLINK-4739,PAYLOAD,2022-12-05 15:38:09,15.08839257,0.0001885,53.2159,216.1971,45.8421,314.2726,8.0069e-05,9.86e-06,0.0,0 STARLINK-4739,1 53792U 22111V   22339.65149970  .00000986  00000-0  80069-4 0  9993,2 53792  53.2159 216.1971 0001885  45.8421 314.2726 15.08839257 14037,6917.8830000000025,95.438,541.052,538.444,0.0
53792.0,STARLINK-4739,PAYLOAD,2022-12-05 16:00:00,15.08861784,0.0001883,53.2144,216.129,51.842,30.757,-0.0014934,-0.00023992,0.0,0 STARLINK-4739,1 53792U 22111V   22339.66667824 -.00023992  00000-0 -14934-2 0  9997,2 53792  53.2144 216.1290 0001883  51.8420  30.7570 15.08861784 13237,6917.814,95.436,540.981,538.376,0.0
53792.0,STARLINK-4739,PAYLOAD,2022-12-06 09:07:24,15.08837974,0.000188,53.2155,212.9263,49.4003,310.7152,2.9678000000000013e-05,1.84e-06,0.0,0 STARLINK-4739,1 53792U 22111V   22340.38014118  .00000184  00000-0  29678-4 0  9999,2 53792  53.2155 212.9263 0001880  49.4003 310.7152 15.08837974 14142,6917.887,95.438,541.052,538.451,0.0
53792.0,STARLINK-4739,PAYLOAD,2022-12-06 18:39:43,15.08830918,0.0001888,53.216,211.1414,52.1528,307.9634,-7.101e-05,-1.418e-05,0.0,0 STARLINK-4739,1 53792U 22111V   22340.77758876 -.00001418  00000-0 -71010-4 0  9998,2 53792  53.2160 211.1414 0001888  52.1528 307.9634 15.08830918 14209,6917.908,95.438,541.0790000000002,538.467,0.0
53792.0,STARLINK-4739,PAYLOAD,2022-12-07 08:58:11,15.08835075,0.0001936,53.2157,208.4661,48.9556,311.1603,-1.9588e-05,-6e-06,0.0,0 STARLINK-4739,1 53792U 22111V   22341.37374617 -.00000600  00000-0 -19588-4 0  9996,2 53792  53.2157 208.4661 0001936  48.9556 311.1603 15.08835075 13498,6917.895,95.438,541.1,538.4209999999998,0.0
53792.0,STARLINK-4739,PAYLOAD,2022-12-07 18:30:30,15.088436800000002,0.0002008,53.2156,206.6819,49.1859,310.9307,-2.0075e-05,-6.08e-06,0.0,0 STARLINK-4739,1 53792U 22111V   22341.77118091 -.00000608  00000-0 -20075-4 0  9993,2 53792  53.2156 206.6819 0002008  49.1859 310.9307 15.08843680 13558,6917.869000000002,95.437,541.123,538.345,0.0
53792.0,STARLINK-4739,PAYLOAD,2022-12-07 23:16:38,15.08849052,0.0002042,53.2157,205.7903,48.1515,311.9651,1.3856e-05,-6.8e-07,0.0,0 STARLINK-4739,1 53792U 22111V   22341.96989579 -.00000068  00000-0  13856-4 0  9999,2 53792  53.2157 205.7903 0002042  48.1515 311.9651 15.08849052 14383,6917.853,95.437,541.13,538.305,0.0
53792.0,STARLINK-4739,PAYLOAD,2022-12-08 23:07:25,15.08841918,0.0001915,53.2158,201.329,46.2872,313.8278,9.7145e-05,1.258e-05,0.0,0 STARLINK-4739,1 53792U 22111V   22342.96349319  .00001258  00000-0  97145-4 0  9996,2 53792  53.2158 201.3290 0001915  46.2872 313.8278 15.08841918 13735,6917.875,95.437,541.064,538.415,0.0
53792.0,STARLINK-4739,PAYLOAD,2022-12-09 19:47:29,15.08805017,0.0002067,53.2167,197.469,32.6102,327.5017,-0.0001776,-3.111e-05,0.0,0 STARLINK-4739,1 53792U 22111V   22343.82465173 -.00003111  00000-0 -17760-3 0  9995,2 53792  53.2167 197.4690 0002067  32.6102 327.5017 15.08805017 13865,6917.986999999999,95.44,541.2819999999998,538.422,0.0
53792.0,STARLINK-4739,PAYLOAD,2022-12-10 00:33:38,15.08830351,0.000195,53.2152,196.5724,48.3448,311.7711,-0.00012188,-2.227e-05,0.0,0 STARLINK-4739,1 53792U 22111V   22344.02335694 -.00002227  00000-0 -12188-3 0  9998,2 53792  53.2152 196.5724 0001950  48.3448 311.7711 15.08830351 13892,6917.91,95.438,541.124,538.4259999999998,0.0
53792.0,STARLINK-4739,PAYLOAD,2022-12-10 19:38:15,15.08828461,0.0001957,53.216,193.0019,51.093,309.0236,-4.2466e-05,-9.64e-06,0.0,0 STARLINK-4739,1 53792U 22111V   22344.81823932 -.00000964  00000-0 -42466-4 0  9991,2 53792  53.2160 193.0019 0001957  51.0930 309.0236 15.08828461 14818,6917.916,95.438,541.134,538.427,0.0
53792.0,STARLINK-4739,PAYLOAD,2022-12-10 22:49:02,15.08831806,0.0002131,53.2174,192.4094,47.9787,312.1387,-4.5667e-05,-1.015e-05,0.0,0 STARLINK-4739,1 53792U 22111V   22344.95071897 -.00001015  00000-0 -45667-4 0  9995,2 53792  53.2174 192.4094 0002131  47.9787 312.1387 15.08831806 14031,6917.905,95.438,541.245,538.2959999999998,0.0
53792.0,STARLINK-4739,PAYLOAD,2022-12-11 21:04:26,15.08823409,0.0001912,53.2164,188.24400000000003,50.7559,309.3602,0.00022175,3.241e-05,0.0,0 STARLINK-4739,1 53792U 22111V   22345.87808004  .00003241  00000-0  22175-3 0  9994,2 53792  53.2164 188.2440 0001912  50.7559 309.3602 15.08823409 14974,6917.931,95.439,541.119,538.4730000000002,0.0
53792.0,STARLINK-4739,PAYLOAD,2022-12-12 00:15:12,15.08820606,0.0001965,53.2167,187.6499,36.851,323.2617,0.00028585,4.262e-05,0.0,0 STARLINK-4739,1 53792U 22111V   22346.01056109  .00004262  00000-0  28585-3 0  9997,2 53792  53.2167 187.6499 0001965  36.8510 323.2617 15.08820606 14195,6917.94,95.439,541.164,538.445,0.0
53792.0,STARLINK-4739,PAYLOAD,2022-12-12 22:30:36,15.08839241,0.0001976,53.2173,183.487,52.8902,307.2270000000001,4.1824e-05,3.77e-06,0.0,0 STARLINK-4739,1 53792U 22111V   22346.93792013  .00000377  00000-0  41824-4 0  9994,2 53792  53.2173 183.4870 0001976  52.8902 307.2270 15.08839241 14332,6917.8830000000025,95.438,541.115,538.381,0.0
53792.0,STARLINK-4739,PAYLOAD,2022-12-13 12:49:04,15.08839793,0.0002054,53.2177,180.8107,50.8664,309.2511,-4.4991e-05,-1.004e-05,0.0,0 STARLINK-4739,1 53792U 22111V   22347.53408370 -.00001004  00000-0 -44991-4 0  9999,2 53792  53.2177 180.8107 0002054  50.8664 309.2511 15.08839793 15222,6917.880999999999,95.438,541.1669999999998,538.325,0.0
